{
  "type": "FeatureCollection",
  "features": [
    {
      "type": "Feature",
      "properties": {
        "norad_id": 37280,
        "name": "COSMOS 2251 DEB",
        "group": "cosmos-2251-debris",
        "lat": 72.69769564332357,
        "lon": 169.23160855360138,
        "alt_km": 815.3940845540528,
        "timestamp": "2025-12-13T07:35:41.901947+00:00",
        "meta_object_name": "COSMOS 2251 DEB",
        "meta_object_id": "1993-036BHU",
        "meta_epoch": "2025-12-11T21:18:02.152224",
        "meta_mean_motion": 14.19307625,
        "meta_eccentricity": 0.0131129,
        "meta_inclination": 74.0314,
        "meta_ra_of_asc_node": 58.592,
        "meta_arg_of_pericenter": 187.3743,
        "meta_mean_anomaly": 172.5477,
        "meta_ephemeris_type": 0,
        "meta_classification_type": "U",
        "meta_norad_cat_id": 37280,
        "meta_element_set_no": 999,
        "meta_rev_at_epoch": 57311,
        "meta_bstar": 0.0026008,
        "meta_mean_motion_dot": 5.928e-05,
        "meta_mean_motion_ddot": 0,
        "tle_line1": "1 37280U 93036BHU 25345.88752491  .00005928  00000+0  26008-2 0  9995",
        "tle_line2": "2 37280  74.0314  58.5920 0131129 187.3743 172.5477 14.19307625573118"
      },
      "geometry": {
        "type": "Point",
        "coordinates": [
          169.23160855360138,
          72.69769564332357
        ]
      }
    },
    {
      "type": "Feature",
      "properties": {
        "norad_id": 37284,
        "name": "COSMOS 2251 DEB",
        "group": "cosmos-2251-debris",
        "lat": 73.36472451839566,
        "lon": -130.64857263048773,
        "alt_km": 928.15464021146,
        "timestamp": "2025-12-13T07:35:41.901956+00:00",
        "meta_object_name": "COSMOS 2251 DEB",
        "meta_object_id": "1993-036BHY",
        "meta_epoch": "2025-12-10T18:04:20.469216",
        "meta_mean_motion": 14.12686618,
        "meta_eccentricity": 0.01605026,
        "meta_inclination": 74.0123,
        "meta_ra_of_asc_node": 160.2425,
        "meta_arg_of_pericenter": 312.4867,
        "meta_mean_anomaly": 59.8736,
        "meta_ephemeris_type": 0,
        "meta_classification_type": "U",
        "meta_norad_cat_id": 37284,
        "meta_element_set_no": 999,
        "meta_rev_at_epoch": 59147,
        "meta_bstar": 0.001592138,
        "meta_mean_motion_dot": 3.31e-05,
        "meta_mean_motion_ddot": 0,
        "tle_line1": "1 37284U 93036BHY 25344.75301469  .00003310  00000+0  15921-2 0  9994",
        "tle_line2": "2 37284  74.0123 160.2425 0160502 312.4867  59.8736 14.12686618591475"
      },
      "geometry": {
        "type": "Point",
        "coordinates": [
          -130.64857263048773,
          73.36472451839566
        ]
      }
    },
    {
      "type": "Feature",
      "properties": {
        "norad_id": 37292,
        "name": "COSMOS 2251 DEB",
        "group": "cosmos-2251-debris",
        "lat": -8.140276969157835,
        "lon": -128.89241380359923,
        "alt_km": 995.0902773700609,
        "timestamp": "2025-12-13T07:35:41.901965+00:00",
        "meta_object_name": "COSMOS 2251 DEB",
        "meta_object_id": "1993-036BJG",
        "meta_epoch": "2025-12-02T14:04:30.366912",
        "meta_mean_motion": 14.03226454,
        "meta_eccentricity": 0.02102512,
        "meta_inclination": 74.129,
        "meta_ra_of_asc_node": 67.3453,
        "meta_arg_of_pericenter": 73.1105,
        "meta_mean_anomaly": 289.2966,
        "meta_ephemeris_type": 0,
        "meta_classification_type": "U",
        "meta_norad_cat_id": 37292,
        "meta_element_set_no": 999,
        "meta_rev_at_epoch": 59706,
        "meta_bstar": 0.0022453288,
        "meta_mean_motion_dot": 4.236e-05,
        "meta_mean_motion_ddot": 0,
        "tle_line1": "1 37292U 93036BJG 25336.58646258  .00004236  00000+0  22453-2 0  9999",
        "tle_line2": "2 37292  74.1290  67.3453 0210251  73.1105 289.2966 14.03226454597064"
      },
      "geometry": {
        "type": "Point",
        "coordinates": [
          -128.89241380359923,
          -8.140276969157835
        ]
      }
    },
    {
      "type": "Feature",
      "properties": {
        "norad_id": 37295,
        "name": "COSMOS 2251 DEB",
        "group": "cosmos-2251-debris",
        "lat": -47.62662870892426,
        "lon": 118.83686070532717,
        "alt_km": 702.7388303601956,
        "timestamp": "2025-12-13T07:35:41.901974+00:00",
        "meta_object_name": "COSMOS 2251 DEB",
        "meta_object_id": "1993-036BJK",
        "meta_epoch": "2025-12-12T05:58:20.727264",
        "meta_mean_motion": 14.65233803,
        "meta_eccentricity": 0.00437931,
        "meta_inclination": 74.0065,
        "meta_ra_of_asc_node": 282.5698,
        "meta_arg_of_pericenter": 101.9885,
        "meta_mean_anomaly": 258.6197,
        "meta_ephemeris_type": 0,
        "meta_classification_type": "U",
        "meta_norad_cat_id": 37295,
        "meta_element_set_no": 999,
        "meta_rev_at_epoch": 82297,
        "meta_bstar": 0.00093255653,
        "meta_mean_motion_dot": 5.067e-05,
        "meta_mean_motion_ddot": 0,
        "tle_line1": "1 37295U 93036BJK 25346.24885101  .00005067  00000+0  93256-3 0  9991",
        "tle_line2": "2 37295  74.0065 282.5698 0043793 101.9885 258.6197 14.65233803822979"
      },
      "geometry": {
        "type": "Point",
        "coordinates": [
          118.83686070532717,
          -47.62662870892426
        ]
      }
    },
    {
      "type": "Feature",
      "properties": {
        "norad_id": 37305,
        "name": "COSMOS 2251 DEB",
        "group": "cosmos-2251-debris",
        "lat": -45.80847065607781,
        "lon": -87.8691907558356,
        "alt_km": 760.7341318143745,
        "timestamp": "2025-12-13T07:35:41.901983+00:00",
        "meta_object_name": "COSMOS 2251 DEB",
        "meta_object_id": "1993-036BJV",
        "meta_epoch": "2025-12-10T14:37:05.458080",
        "meta_mean_motion": 14.36123744,
        "meta_eccentricity": 0.005028,
        "meta_inclination": 73.8703,
        "meta_ra_of_asc_node": 294.4681,
        "meta_arg_of_pericenter": 255.1941,
        "meta_mean_anomaly": 104.3638,
        "meta_ephemeris_type": 0,
        "meta_classification_type": "U",
        "meta_norad_cat_id": 37305,
        "meta_element_set_no": 999,
        "meta_rev_at_epoch": 66836,
        "meta_bstar": 0.0011247,
        "meta_mean_motion_dot": 3.297e-05,
        "meta_mean_motion_ddot": 0,
        "tle_line1": "1 37305U 93036BJV 25344.60909095  .00003297  00000+0  11247-2 0  9992",
        "tle_line2": "2 37305  73.8703 294.4681 0050280 255.1941 104.3638 14.36123744668363"
      },
      "geometry": {
        "type": "Point",
        "coordinates": [
          -87.8691907558356,
          -45.80847065607781
        ]
      }
    },
    {
      "type": "Feature",
      "properties": {
        "norad_id": 37312,
        "name": "COSMOS 2251 DEB",
        "group": "cosmos-2251-debris",
        "lat": 13.989369631044617,
        "lon": -152.80238016750815,
        "alt_km": 734.2894881535876,
        "timestamp": "2025-12-13T07:35:41.901992+00:00",
        "meta_object_name": "COSMOS 2251 DEB",
        "meta_object_id": "1993-036BKC",
        "meta_epoch": "2025-12-09T00:35:23.995392",
        "meta_mean_motion": 14.46107555,
        "meta_eccentricity": 0.00182852,
        "meta_inclination": 74.0311,
        "meta_ra_of_asc_node": 211.115,
        "meta_arg_of_pericenter": 314.7028,
        "meta_mean_anomaly": 45.264,
        "meta_ephemeris_type": 0,
        "meta_classification_type": "U",
        "meta_norad_cat_id": 37312,
        "meta_element_set_no": 999,
        "meta_rev_at_epoch": 86110,
        "meta_bstar": 0.00057614872,
        "meta_mean_motion_dot": 2.035e-05,
        "meta_mean_motion_ddot": 0,
        "tle_line1": "1 37312U 93036BKC 25343.02458328  .00002035  00000+0  57615-3 0  9992",
        "tle_line2": "2 37312  74.0311 211.1150 0018285 314.7028  45.2640 14.46107555861109"
      },
      "geometry": {
        "type": "Point",
        "coordinates": [
          -152.80238016750815,
          13.989369631044617
        ]
      }
    },
    {
      "type": "Feature",
      "properties": {
        "norad_id": 37316,
        "name": "COSMOS 2251 DEB",
        "group": "cosmos-2251-debris",
        "lat": -44.62343602076719,
        "lon": 3.4787750595511304,
        "alt_km": 604.5271078047499,
        "timestamp": "2025-12-13T07:35:41.902002+00:00",
        "meta_object_name": "COSMOS 2251 DEB",
        "meta_object_id": "1993-036BKG",
        "meta_epoch": "2025-12-12T12:31:34.871232",
        "meta_mean_motion": 14.94485363,
        "meta_eccentricity": 0.0029307,
        "meta_inclination": 74.0203,
        "meta_ra_of_asc_node": 21.5089,
        "meta_arg_of_pericenter": 89.6992,
        "meta_mean_anomaly": 270.755,
        "meta_ephemeris_type": 0,
        "meta_classification_type": "U",
        "meta_norad_cat_id": 37316,
        "meta_element_set_no": 999,
        "meta_rev_at_epoch": 86140,
        "meta_bstar": 0.0028276502,
        "meta_mean_motion_dot": 0.00030882,
        "meta_mean_motion_ddot": 0,
        "tle_line1": "1 37316U 93036BKG 25346.52193138  .00030882  00000+0  28277-2 0  9991",
        "tle_line2": "2 37316  74.0203  21.5089 0029307  89.6992 270.7550 14.94485363861409"
      },
      "geometry": {
        "type": "Point",
        "coordinates": [
          3.4787750595511304,
          -44.62343602076719
        ]
      }
    }
  ]
}